IRIDIUM 119             
1 42959U 17061E   24131.67299181  .00000589  00000+0  20324-3 0  9993
2 42959  86.3978 346.0034 0002162  80.2840 279.8600 14.34215046344806
IRIDIUM 107             
1 42960U 17061F   24131.83155742  .00001296  00000+0  45580-3 0  9994
2 42960  86.3980 345.9535 0002057  80.1191 280.0236 14.34219822344834
IRIDIUM 132             
1 42961U 17061G   24131.83790045  .00000018  00000+0 -49537-6 0  9997
2 42961  86.3976 345.9358 0001806  81.5352 278.6048 14.34217846344836
IRIDIUM 136             
1 42962U 17061H   24131.86960758  .00000712  00000+0  24716-3 0  9990
2 42962  86.3977 345.9257 0002403  82.7330 277.4139 14.34223961344854
IRIDIUM 139             
1 42963U 17061J   24131.66665072 -.00000005  00000+0 -89595-5 0  9995
2 42963  86.3977 346.0600 0001830  80.6631 279.4771 14.34217560344833
IRIDIUM 125             
1 42964U 17061K   24132.14234533  .00000298  00000+0  99347-4 0  9991
2 42964  86.3980 345.9083 0002312  78.1823 281.9632 14.34219425344917
IRIDIUM 135             
1 43070U 17083A   24132.46531034  .00002853  00000+0  10110-2 0  9993
2 43070  86.3928 282.4249 0002019 101.5085 258.6337 14.34232884334255
IRIDIUM 138             
1 43071U 17083B   24132.42090212  .00001535  00000+0  54077-3 0  9995
2 43071  86.3915 282.1652 0002066  83.4997 276.6434 14.34231951334239
